{
  "type": "FeatureCollection",
  "features": [
    {
      "type": "Feature",
      "properties": {
        "DISTRICT": "Wayanad",
        "ST_NM": "Kerala",
        "ST_CEN_CD": 32,
        "DT_CEN_CD": 3,
        "censuscode": 590,
        "orig_ogc_f": 610
      },
      "geometry": {
        "type": "Polygon",
        "coordinates": [
          [
            [
              76.41534290105436,
              11.760266632986118
            ],
            [
              76.41851728869605,
              11.753436371084804
            ],
            [
              76.41429196411895,
              11.74759326164999
            ],
            [
              76.41327640577236,
              11.740306198154205
            ],
            [
              76.41968538465241,
              11.741251658492338
            ],
            [
              76.4250108841816,
              11.732905825204798
            ],
            [
              76.42674738295648,
              11.728479755798507
            ],
            [
              76.42666658047163,
              11.724062484045755
            ],
            [
              76.4257178075474,
              11.720561579595739
            ],
            [
              76.41883250734647,
              11.716916653004615
            ],
            [
              76.416419297408,
              11.711119682769187
            ],
            [
              76.41402441017414,
              11.710556779305115
            ],
            [
              76.41083724168031,
              11.713735111231108
            ],
            [
              76.40410919100219,
              11.708021280703475
            ],
            [
              76.41068270129044,
              11.7064367036784
            ],
            [
              76.4099777423174,
              11.690078640814317
            ],
            [
              76.41522189175804,
              11.676504182383495
            ],
            [
              76.41805583134925,
              11.671554288805673
            ],
            [
              76.42545288306697,
              11.670427310698654
            ],
            [
              76.43137534457078,
              11.666327780712658
            ],
            [
              76.43563746295695,
              11.654539552017587
            ],
            [
              76.43778565007851,
              11.652113287493867
            ],
            [
              76.44259973375821,
              11.648648690481016
            ],
            [
              76.44357117384828,
              11.6447435773205
            ],
            [
              76.44221918033024,
              11.640559709105258
            ],
            [
              76.43870558717875,
              11.636669216537022
            ],
            [
              76.43387072785096,
              11.636057201862428
            ],
            [
              76.4327924956965,
              11.630313520421232
            ],
            [
              76.42925192099945,
              11.632114162922404
            ],
            [
              76.40408776393562,
              11.63227664301003
            ],
            [
              76.38788800366413,
              11.629359109366224
            ],
            [
              76.38459168259719,
              11.62167004134836
            ],
            [
              76.38467167344808,
              11.611571264400993
            ],
            [
              76.37888441518761,
              11.607626603977145
            ],
            [
              76.37856307816917,
              11.600396512668157
            ],
            [
              76.37319957660071,
              11.598635350259492
            ],
            [
              76.35790255683239,
              11.589624852303638
            ],
            [
              76.34811157968922,
              11.587425271098057
            ],
            [
              76.34332568560261,
              11.585204503404574
            ],
            [
              76.34124645933787,
              11.587504330699323
            ],
            [
              76.3411467551245,
              11.591982609212316
            ],
            [
              76.33626701735452,
              11.595398546558453
            ],
            [
              76.31875048026956,
              11.584320989401105
            ],
            [
              76.31686174706313,
              11.576406289158653
            ],
            [
              76.31283960484645,
              11.577222099907356
            ],
            [
              76.30554294311825,
              11.571112816843948
            ],
            [
              76.30140509401734,
              11.571812596846712
            ],
            [
              76.30079172739156,
              11.578535721294944
            ],
            [
              76.29820738984857,
              11.587326607689654
            ],
            [
              76.29343432833019,
              11.589707032664966
            ],
            [
              76.28546144880637,
              11.590252735967502
            ],
            [
              76.28350371219945,
              11.596686589919907
            ],
            [
              76.2784496928815,
              11.599634046193477
            ],
            [
              76.27418838832834,
              11.596035983893614
            ],
            [
              76.26713290520505,
              11.593649674738614
            ],
            [
              76.23310065122152,
              11.571091808771516
            ],
            [
              76.23430426253356,
              11.566325164768983
            ],
            [
              76.24188414466016,
              11.553146593304845
            ],
            [
              76.24579496474423,
              11.540036355661968
            ],
            [
              76.249970029121,
              11.535478930354675
            ],
            [
              76.2504712246224,
              11.530881384268778
            ],
            [
              76.24714949570226,
              11.527627981439387
            ],
            [
              76.24067761135407,
              11.525355310865839
            ],
            [
              76.2325229290659,
              11.524640226639352
            ],
            [
              76.22766559362609,
              11.518968560893105
            ],
            [
              76.22362354759238,
              11.512151156036952
            ],
            [
              76.20189367091929,
              11.506545550070173
            ],
            [
              76.19002767400028,
              11.49532139312464
            ],
            [
              76.18282512981018,
              11.48214394950397
            ],
            [
              76.186355329964,
              11.476211192630815
            ],
            [
              76.18429490834177,
              11.471050701780397
            ],
            [
              76.17566943627233,
              11.467064208272243
            ],
            [
              76.16920404845091,
              11.465358877624253
            ],
            [
              76.16527964681738,
              11.458661336480512
            ],
            [
              76.14259832030895,
              11.449203275341828
            ],
            [
              76.13482538373063,
              11.455546812337111
            ],
            [
              76.12902983478568,
              11.463775408811177
            ],
            [
              76.1213121496614,
              11.47160713592443
            ],
            [
              76.1127024705616,
              11.474626481131594
            ],
            [
              76.10486583287258,
              11.48004578472947
            ],
            [
              76.09537775707447,
              11.481692881823973
            ],
            [
              76.09044803382258,
              11.48842125673382
            ],
            [
              76.09518252934946,
              11.492946906898212
            ],
            [
              76.09135663794864,
              11.497783661871338
            ],
            [
              76.09038473400867,
              11.50536432314431
            ],
            [
              76.07751113671794,
              11.520107052890335
            ],
            [
              76.07489308569791,
              11.519999061974943
            ],
            [
              76.06349714932331,
              11.50757548866521
            ],
            [
              76.05842972409594,
              11.508681851116176
            ],
            [
              76.05334910421499,
              11.502608386861567
            ],
            [
              76.04841020997327,
              11.504982113169971
            ],
            [
              76.04491250100344,
              11.504240837367243
            ],
            [
              76.04193653841328,
              11.501150156570528
            ],
            [
              76.03368693251426,
              11.508235778497728
            ],
            [
              76.02374544258042,
              11.512689292467309
            ],
            [
              76.01734648851124,
              11.514550401768844
            ],
            [
              76.00822231756966,
              11.52169847519078
            ],
            [
              75.99986329212064,
              11.5263705953138
            ],
            [
              75.99058218430429,
              11.532880222155223
            ],
            [
              75.98712310299953,
              11.536720195919582
            ],
            [
              75.98006526419606,
              11.540679759901877
            ],
            [
              75.97472506092815,
              11.54631925639523
            ],
            [
              75.97067391784762,
              11.548402447497002
            ],
            [
              75.96830411257243,
              11.550512731415184
            ],
            [
              75.95864954352325,
              11.561107873316095
            ],
            [
              75.9591261675107,
              11.566332387527034
            ],
            [
              75.9576942454822,
              11.571703604426503
            ],
            [
              75.95727954097445,
              11.579353129405419
            ],
            [
              75.9517180064985,
              11.581445203545949
            ],
            [
              75.94630616327679,
              11.582161791136508
            ],
            [
              75.94064137498026,
              11.58535047821119
            ],
            [
              75.93805091739029,
              11.587855558173288
            ],
            [
              75.92677234396116,
              11.590273172260998
            ],
            [
              75.91771063374486,
              11.59597676434977
            ],
            [
              75.90812635062873,
              11.602550872932182
            ],
            [
              75.90595253636131,
              11.605164395791633
            ],
            [
              75.90485921442509,
              11.61401269195631
            ],
            [
              75.89782696441284,
              11.619289057595102
            ],
            [
              75.89833469438683,
              11.62586838627926
            ],
            [
              75.90008496739323,
              11.629561833103482
            ],
            [
              75.90017772621295,
              11.642685726985759
            ],
            [
              75.90222772108005,
              11.647237893846578
            ],
            [
              75.90389191718035,
              11.659365959386971
            ],
            [
              75.9040553590546,
              11.666076187058257
            ],
            [
              75.90212739375714,
              11.676832598524419
            ],
            [
              75.90631239765779,
              11.679527556641936
            ],
            [
              75.90910558332594,
              11.682642605366572
            ],
            [
              75.91468624834698,
              11.685659153537063
            ],
            [
              75.91617440813512,
              11.687879922018855
            ],
            [
              75.90674508778575,
              11.693019720299278
            ],
            [
              75.90404968461871,
              11.696045400035045
            ],
            [
              75.89643788311234,
              11.69857139702739
            ],
            [
              75.88602367695916,
              11.6973587112181
            ],
            [
              75.87903322391506,
              11.698287100645175
            ],
            [
              75.87672893087931,
              11.700678606867736
            ],
            [
              75.86987690637524,
              11.699484066963272
            ],
            [
              75.85874397607346,
              11.70089154186627
            ],
            [
              75.85084105535638,
              11.6994152822824
            ],
            [
              75.84983987796734,
              11.70259289326986
            ],
            [
              75.84561510401332,
              11.705137923558679
            ],
            [
              75.8456686766956,
              11.708470260455117
            ],
            [
              75.84455864353512,
              11.712222092229704
            ],
            [
              75.83599488469291,
              11.717195806495212
            ],
            [
              75.83023689525798,
              11.72291179768762
            ],
            [
              75.82483290124587,
              11.72415005296345
            ],
            [
              75.82104769805123,
              11.732198990422042
            ],
            [
              75.81816474973901,
              11.734827857187392
            ],
            [
              75.80821829792774,
              11.740562886401994
            ],
            [
              75.80275776434061,
              11.742427979383306
            ],
            [
              75.79557513081195,
              11.742198832731635
            ],
            [
              75.79875262035233,
              11.747779715571953
            ],
            [
              75.7887156752914,
              11.755457491469086
            ],
            [
              75.78543833816121,
              11.7588998217144
            ],
            [
              75.7857081380544,
              11.761474591288652
            ],
            [
              75.78920909946193,
              11.764922799665712
            ],
            [
              75.79021398208661,
              11.77398391143865
            ],
            [
              75.79397430570562,
              11.78006984426194
            ],
            [
              75.79264654015549,
              11.78904924104764
            ],
            [
              75.78850295076653,
              11.792795917223087
            ],
            [
              75.77723949578296,
              11.797685965223344
            ],
            [
              75.77998382694479,
              11.804351872888208
            ],
            [
              75.78283098106027,
              11.807869399377772
            ],
            [
              75.78777505483548,
              11.810891466056827
            ],
            [
              75.79245523394533,
              11.811746650269503
            ],
            [
              75.7967508222801,
              11.814262048208871
            ],
            [
              75.79821391124754,
              11.818659116196459
            ],
            [
              75.79816907590863,
              11.82354209331778
            ],
            [
              75.79678439006524,
              11.828500843481265
            ],
            [
              75.79262910428375,
              11.83161612705121
            ],
            [
              75.78994005298027,
              11.835392664997944
            ],
            [
              75.79083919312632,
              11.84071215262111
            ],
            [
              75.79225544766032,
              11.84552343542563
            ],
            [
              75.8004201486496,
              11.845797303773521
            ],
            [
              75.80331688538881,
              11.847646657426129
            ],
            [
              75.80470464123708,
              11.85084164081788
            ],
            [
              75.80761225392177,
              11.854534718896097
            ],
            [
              75.81701498685149,
              11.855022138237032
            ],
            [
              75.82459695344437,
              11.850473976553404
            ],
            [
              75.8296549261035,
              11.849482156422042
            ],
            [
              75.834029928499,
              11.84964349759887
            ],
            [
              75.84162800177826,
              11.854232738692806
            ],
            [
              75.84489047932246,
              11.854065842618217
            ],
            [
              75.84764593156575,
              11.85086303562891
            ],
            [
              75.85041849979082,
              11.848921950190881
            ],
            [
              75.85628013818928,
              11.846934963657647
            ],
            [
              75.8600267704615,
              11.847041222992013
            ],
            [
              75.86389987085853,
              11.84859048541962
            ],
            [
              75.86758739730921,
              11.845606103740463
            ],
            [
              75.87571174219588,
              11.846623532847554
            ],
            [
              75.88068663751734,
              11.843549618478654
            ],
            [
              75.88389008749616,
              11.843043989165254
            ],
            [
              75.88762993141391,
              11.844072086769875
            ],
            [
              75.89204131204588,
              11.841759973623452
            ],
            [
              75.89595226173277,
              11.84226938018739
            ],
            [
              75.90124084305513,
              11.840805631778418
            ],
            [
              75.91395329808897,
              11.843759507529048
            ],
            [
              75.91767741677809,
              11.843304078006156
            ],
            [
              75.92114948741767,
              11.84503207995884
            ],
            [
              75.92350256407671,
              11.84298290739569
            ],
            [
              75.92456600311759,
              11.839453068435326
            ],
            [
              75.92685027884902,
              11.839820479214547
            ],
            [
              75.9286424040437,
              11.843066159995104
            ],
            [
              75.9280104071233,
              11.851644186928576
            ],
            [
              75.93059620197425,
              11.860638970809935
            ],
            [
              75.91885863204804,
              11.867779670799953
            ],
            [
              75.91345058264406,
              11.872803565502977
            ],
            [
              75.92924920049626,
              11.879454716950823
            ],
            [
              75.93574672994396,
              11.887749193330363
            ],
            [
              75.93712578783378,
              11.893704975599618
            ],
            [
              75.93655042809692,
              11.901455726191898
            ],
            [
              75.9345333601016,
              11.909605770798057
            ],
            [
              75.92486665564411,
              11.92070220193616
            ],
            [
              75.9254436387438,
              11.926570486104422
            ],
            [
              75.93060239720276,
              11.93884787142953
            ],
            [
              75.93655804678181,
              11.93710332058914
            ],
            [
              75.94264825290094,
              11.93882439803857
            ],
            [
              75.95389082260752,
              11.939932718305615
            ],
            [
              75.96043564122294,
              11.937544840227245
            ],
            [
              75.96442327599884,
              11.9346512505733
            ],
            [
              75.97350098564203,
              11.933029370972655
            ],
            [
              75.97824675818386,
              11.93361649096304
            ],
            [
              75.98189001940572,
              11.931042310739489
            ],
            [
              75.9855153920562,
              11.930744612488871
            ],
            [
              75.98903161853931,
              11.931524814651395
            ],
            [
              76.00015834328961,
              11.929408040511642
            ],
            [
              76.00390509460155,
              11.929745216820216
            ],
            [
              76.00970075407015,
              11.938054075395655
            ],
            [
              76.0196669815882,
              11.939401477598393
            ],
            [
              76.0242235690011,
              11.941164427553444
            ],
            [
              76.02882497348426,
              11.940804735609843
            ],
            [
              76.03541066563827,
              11.93894719472224
            ],
            [
              76.04435066304978,
              11.9451821643732
            ],
            [
              76.04779935608263,
              11.949482037574091
            ],
            [
              76.05363847943588,
              11.95066339898228
            ],
            [
              76.0726874251799,
              11.964496961401
            ],
            [
              76.07875955880756,
              11.967520939381165
            ],
            [
              76.08697914312826,
              11.966922152773147
            ],
            [
              76.09729648376099,
              11.967863003470724
            ],
            [
              76.11396785137774,
              11.97694108608639
            ],
            [
              76.1147998983236,
              11.934397798019592
            ],
            [
              76.11370307853964,
              11.882669949869992
            ],
            [
              76.11502092910351,
              11.876927254508066
            ],
            [
              76.11562960079478,
              11.8649246237422
            ],
            [
              76.11437792829375,
              11.857515108642717
            ],
            [
              76.12288112623786,
              11.849395932632678
            ],
            [
              76.12679740122367,
              11.850648158411225
            ],
            [
              76.13203814147803,
              11.851144187512823
            ],
            [
              76.14543146667114,
              11.86350174547709
            ],
            [
              76.15587184068681,
              11.867424324084084
            ],
            [
              76.16910502016727,
              11.866466252741736
            ],
            [
              76.18024252595588,
              11.868896301355482
            ],
            [
              76.19061983013441,
              11.870240249956934
            ],
            [
              76.2027155019092,
              11.862044737645638
            ],
            [
              76.20755058497416,
              11.860643423760957
            ],
            [
              76.21009871977587,
              11.855580523145226
            ],
            [
              76.21180729333128,
              11.845186902269239
            ],
            [
              76.21394713573844,
              11.83828382113457
            ],
            [
              76.21226375806101,
              11.82611814757649
            ],
            [
              76.21877263317789,
              11.820813163007973
            ],
            [
              76.22113492832551,
              11.810760655600271
            ],
            [
              76.22536740946757,
              11.806606829910004
            ],
            [
              76.23899406000947,
              11.803059018105952
            ],
            [
              76.25134818074629,
              11.801921782920694
            ],
            [
              76.26010397884755,
              11.806427816631235
            ],
            [
              76.27245857474253,
              11.807066215237526
            ],
            [
              76.27905384696888,
              11.810201989307696
            ],
            [
              76.28213682187693,
              11.807435486156228
            ],
            [
              76.29075432246856,
              11.791551795967186
            ],
            [
              76.30186244192157,
              11.78479095777642
            ],
            [
              76.30716290626785,
              11.78287995370357
            ],
            [
              76.3103364214736,
              11.776319547730447
            ],
            [
              76.31781054083409,
              11.7506231898907
            ],
            [
              76.32491321465099,
              11.747150241726114
            ],
            [
              76.33172205263668,
              11.745516454454467
            ],
            [
              76.34241060154442,
              11.737437237756843
            ],
            [
              76.34835277393196,
              11.737925151612991
            ],
            [
              76.35371676450035,
              11.737335931501832
            ],
            [
              76.35862093322832,
              11.741274340874982
            ],
            [
              76.36353733163057,
              11.746764533560722
            ],
            [
              76.37989721318984,
              11.743086605959727
            ],
            [
              76.39135544623733,
              11.751939202886561
            ],
            [
              76.39833962658213,
              11.749785709519598
            ],
            [
              76.41206296244015,
              11.756792702364496
            ],
            [
              76.41533761837327,
              11.760278028580712
            ],
            [
              76.41534290105436,
              11.760266632986118
            ]
          ]
        ]
      }
    }
  ]
}