{
  "type": "FeatureCollection",
  "features": [
    {
      "type": "Feature",
      "properties": {
        "OID_": 0,
        "TALUK": "Mananthavady",
        "STATE": "Kerala",
        "DISTRICT": "Wayanad",
        "Shape_Leng": 1.41532993496,
        "Shape_Area": 0.06215110465,
        "orig_ogc_f": 2122
      },
      "geometry": {
        "type": "Polygon",
        "coordinates": [
          [
            [
              76.11295360000008,
              11.97821736000003,
              0
            ],
            [
              76.11378585000006,
              11.935677110000029,
              0
            ],
            [
              76.11268960000007,
              11.88395311000005,
              0
            ],
            [
              76.11400735000007,
              11.878210860000024,
              0
            ],
            [
              76.11461610000003,
              11.866209110000057,
              0
            ],
            [
              76.11336460000007,
              11.858797860000038,
              0
            ],
            [
              76.12186435000007,
              11.850681610000038,
              0
            ],
            [
              76.11363285000004,
              11.843417360000046,
              0
            ],
            [
              76.09122360000003,
              11.835450360000038,
              0
            ],
            [
              76.08846935000008,
              11.831605360000026,
              0
            ],
            [
              76.09099435000007,
              11.818631860000039,
              0
            ],
            [
              76.08794835000003,
              11.81312586000007,
              0
            ],
            [
              76.07656410000004,
              11.80380936000006,
              0
            ],
            [
              76.07759060000006,
              11.79714086000007,
              0
            ],
            [
              76.07984335000003,
              11.791793860000041,
              0
            ],
            [
              76.08555435000005,
              11.791661610000062,
              0
            ],
            [
              76.09660335000007,
              11.785943860000032,
              0
            ],
            [
              76.10132535000008,
              11.786210360000041,
              0
            ],
            [
              76.11430710000008,
              11.782386860000031,
              0
            ],
            [
              76.11820260000007,
              11.780363610000052,
              0
            ],
            [
              76.11550160000007,
              11.773650360000033,
              0
            ],
            [
              76.11353985000005,
              11.760737360000064,
              0
            ],
            [
              76.11580110000006,
              11.756651610000063,
              0
            ],
            [
              76.11957735000004,
              11.755671610000036,
              0
            ],
            [
              76.12260835000006,
              11.753764860000047,
              0
            ],
            [
              76.12282510000006,
              11.749686610000026,
              0
            ],
            [
              76.12146810000007,
              11.745836360000055,
              0
            ],
            [
              76.11825535000008,
              11.740912110000068,
              0
            ],
            [
              76.11424035000005,
              11.743969110000023,
              0
            ],
            [
              76.09588510000003,
              11.741903860000036,
              0
            ],
            [
              76.09285360000007,
              11.743582360000062,
              0
            ],
            [
              76.08959435000008,
              11.744160610000051,
              0
            ],
            [
              76.08485485000006,
              11.736943110000027,
              0
            ],
            [
              76.08549610000006,
              11.734814110000059,
              0
            ],
            [
              76.08402485000005,
              11.731722610000077,
              0
            ],
            [
              76.08493835000007,
              11.726843110000061,
              0
            ],
            [
              76.08411610000007,
              11.72443486000003,
              0
            ],
            [
              76.08556135000003,
              11.720406360000027,
              0
            ],
            [
              76.08153585000008,
              11.716864110000074,
              0
            ],
            [
              76.08128785000008,
              11.71300836000006,
              0
            ],
            [
              76.07696560000005,
              11.710501860000022,
              0
            ],
            [
              76.07579135000003,
              11.70728586000007,
              0
            ],
            [
              76.06541035000004,
              11.703586610000059,
              0
            ],
            [
              76.06504160000003,
              11.69618311000005,
              0
            ],
            [
              76.06217885000007,
              11.694187860000056,
              0
            ],
            [
              76.05947585000007,
              11.685691860000077,
              0
            ],
            [
              76.05527285000005,
              11.682890860000043,
              0
            ],
            [
              76.04549135000008,
              11.682573110000021,
              0
            ],
            [
              76.04538110000004,
              11.68619786000005,
              0
            ],
            [
              76.04113610000007,
              11.68850186000003,
              0
            ],
            [
              76.03993235000007,
              11.693730860000073,
              0
            ],
            [
              76.03509460000004,
              11.694665610000072,
              0
            ],
            [
              76.03067960000004,
              11.696808860000033,
              0
            ],
            [
              76.02590885000006,
              11.700671860000057,
              0
            ],
            [
              76.02298135000007,
              11.694646860000034,
              0
            ],
            [
              76.02037035000006,
              11.698102860000063,
              0
            ],
            [
              76.01950185000004,
              11.701260110000021,
              0
            ],
            [
              76.01548160000004,
              11.700640860000021,
              0
            ],
            [
              76.01391935000004,
              11.705409110000062,
              0
            ],
            [
              76.01574410000006,
              11.709827610000048,
              0
            ],
            [
              76.02220410000007,
              11.707398610000041,
              0
            ],
            [
              76.02157210000007,
              11.712046360000045,
              0
            ],
            [
              76.02426785000006,
              11.717152110000029,
              0
            ],
            [
              76.02876510000004,
              11.72047236000003,
              0
            ],
            [
              76.03092510000005,
              11.723675610000043,
              0
            ],
            [
              76.02714860000003,
              11.726504610000063,
              0
            ],
            [
              76.02161685000004,
              11.724224110000023,
              0
            ],
            [
              76.01794810000007,
              11.725840360000063,
              0
            ],
            [
              76.01467535000006,
              11.723149110000065,
              0
            ],
            [
              76.01071285000006,
              11.722648610000022,
              0
            ],
            [
              76.00768260000007,
              11.72115911000003,
              0
            ],
            [
              76.00430060000008,
              11.720602360000044,
              0
            ],
            [
              76.00346860000008,
              11.716118860000051,
              0
            ],
            [
              76.00387110000008,
              11.714222360000065,
              0
            ],
            [
              76.00194810000005,
              11.712506610000048,
              0
            ],
            [
              75.99885385000005,
              11.712695110000027,
              0
            ],
            [
              75.99595235000004,
              11.711829360000024,
              0
            ],
            [
              75.99283360000004,
              11.713027110000041,
              0
            ],
            [
              75.98891385000007,
              11.71042336000005,
              0
            ],
            [
              75.97887135000008,
              11.707031610000058,
              0
            ],
            [
              75.97588785000005,
              11.701351110000076,
              0
            ],
            [
              75.97215360000007,
              11.706332860000032,
              0
            ],
            [
              75.96804685000006,
              11.703887860000066,
              0
            ],
            [
              75.96320060000005,
              11.697683360000042,
              0
            ],
            [
              75.95986835000008,
              11.694502360000058,
              0
            ],
            [
              75.95654410000003,
              11.692620360000035,
              0
            ],
            [
              75.95237235000008,
              11.69187536000004,
              0
            ],
            [
              75.95048760000003,
              11.69437436000004,
              0
            ],
            [
              75.94678385000003,
              11.694524110000032,
              0
            ],
            [
              75.94213160000004,
              11.69393886000006,
              0
            ],
            [
              75.93254760000008,
              11.69090661000007,
              0
            ],
            [
              75.92780485000003,
              11.688656610000066,
              0
            ],
            [
              75.92459885000005,
              11.688691610000035,
              0
            ],
            [
              75.91821435000008,
              11.690387610000073,
              0
            ],
            [
              75.91518210000004,
              11.689175860000034,
              0
            ],
            [
              75.90575610000008,
              11.694315360000076,
              0
            ],
            [
              75.90306110000006,
              11.697340610000026,
              0
            ],
            [
              75.89544785000004,
              11.699866360000044,
              0
            ],
            [
              75.88503485000007,
              11.698653610000065,
              0
            ],
            [
              75.87804535000004,
              11.699581860000023,
              0
            ],
            [
              75.87574135000006,
              11.701973360000068,
              0
            ],
            [
              75.86889235000007,
              11.70077886000007,
              0
            ],
            [
              75.85775860000007,
              11.70218611000007,
              0
            ],
            [
              75.84985660000007,
              11.700709860000075,
              0
            ],
            [
              75.84885560000004,
              11.703887360000067,
              0
            ],
            [
              75.84463110000007,
              11.70643436000006,
              0
            ],
            [
              75.84468485000008,
              11.70976636000006,
              0
            ],
            [
              75.84357485000004,
              11.713515610000059,
              0
            ],
            [
              75.83501435000005,
              11.718489110000064,
              0
            ],
            [
              75.82925485000004,
              11.724204610000072,
              0
            ],
            [
              75.82385135000004,
              11.725442610000073,
              0
            ],
            [
              75.82006660000008,
              11.733493360000068,
              0
            ],
            [
              75.81718635000004,
              11.736121860000026,
              0
            ],
            [
              75.80723860000006,
              11.741856360000043,
              0
            ],
            [
              75.80177885000006,
              11.743721360000052,
              0
            ],
            [
              75.79459710000003,
              11.743492110000034,
              0
            ],
            [
              75.79777410000008,
              11.749070360000076,
              0
            ],
            [
              75.78773835000004,
              11.756747610000048,
              0
            ],
            [
              75.78446135000007,
              11.760191860000077,
              0
            ],
            [
              75.78473110000004,
              11.762766360000057,
              0
            ],
            [
              75.78823160000007,
              11.766214360000049,
              0
            ],
            [
              75.78923635000007,
              11.775274860000025,
              0
            ],
            [
              75.79299635000007,
              11.781358110000042,
              0
            ],
            [
              75.79166860000004,
              11.790339110000048,
              0
            ],
            [
              75.78752535000007,
              11.794085610000025,
              0
            ],
            [
              75.77626335000008,
              11.798975110000072,
              0
            ],
            [
              75.77900735000003,
              11.805640610000069,
              0
            ],
            [
              75.78185410000003,
              11.809155610000062,
              0
            ],
            [
              75.78679760000006,
              11.812177360000021,
              0
            ],
            [
              75.79147710000007,
              11.81303261000005,
              0
            ],
            [
              75.79577210000008,
              11.815547860000038,
              0
            ],
            [
              75.79723735000005,
              11.819946860000073,
              0
            ],
            [
              75.79719235000005,
              11.824829610000052,
              0
            ],
            [
              75.79580560000005,
              11.829787860000067,
              0
            ],
            [
              75.79165085000005,
              11.832902860000047,
              0
            ],
            [
              75.78896210000005,
              11.836679110000034,
              0
            ],
            [
              75.78986110000005,
              11.841996110000025,
              0
            ],
            [
              75.79127710000006,
              11.846806860000072,
              0
            ],
            [
              75.79944085000005,
              11.847080860000062,
              0
            ],
            [
              75.80233710000005,
              11.848932360000049,
              0
            ],
            [
              75.80372460000007,
              11.852127110000026,
              0
            ],
            [
              75.80663185000003,
              11.855819860000054,
              0
            ],
            [
              75.81603585000005,
              11.856307360000073,
              0
            ],
            [
              75.82361460000004,
              11.851759610000045,
              0
            ],
            [
              75.82867185000003,
              11.850767860000076,
              0
            ],
            [
              75.83304860000004,
              11.850929360000066,
              0
            ],
            [
              75.84064360000008,
              11.855518110000048,
              0
            ],
            [
              75.84390560000008,
              11.855351360000043,
              0
            ],
            [
              75.84666060000006,
              11.852148860000057,
              0
            ],
            [
              75.84943535000008,
              11.850205610000046,
              0
            ],
            [
              75.85529635000006,
              11.848218860000031,
              0
            ],
            [
              75.85904010000007,
              11.848325110000076,
              0
            ],
            [
              75.86291260000007,
              11.849874360000058,
              0
            ],
            [
              75.86660210000008,
              11.84689011000006,
              0
            ],
            [
              75.87472310000004,
              11.84790761000005,
              0
            ],
            [
              75.87969735000007,
              11.844833860000051,
              0
            ],
            [
              75.88290060000008,
              11.844328360000077,
              0
            ],
            [
              75.88664210000007,
              11.84535636000004,
              0
            ],
            [
              75.89105310000008,
              11.84304461000005,
              0
            ],
            [
              75.89496110000005,
              11.843553860000043,
              0
            ],
            [
              75.90024910000005,
              11.842090360000043,
              0
            ],
            [
              75.91296010000008,
              11.84504411000006,
              0
            ],
            [
              75.91668360000006,
              11.844588610000073,
              0
            ],
            [
              75.92015760000004,
              11.84631661000003,
              0
            ],
            [
              75.92251035000004,
              11.844267610000031,
              0
            ],
            [
              75.92357385000008,
              11.840738110000075,
              0
            ],
            [
              75.92585785000006,
              11.841105360000029,
              0
            ],
            [
              75.92764960000005,
              11.844350860000077,
              0
            ],
            [
              75.92701760000006,
              11.852928360000021,
              0
            ],
            [
              75.92960310000007,
              11.861924610000074,
              0
            ],
            [
              75.91786685000005,
              11.869062610000071,
              0
            ],
            [
              75.91245935000006,
              11.874086110000064,
              0
            ],
            [
              75.92825610000006,
              11.88073686000007,
              0
            ],
            [
              75.93475260000008,
              11.889032860000043,
              0
            ],
            [
              75.93613160000007,
              11.894986110000048,
              0
            ],
            [
              75.93555635000007,
              11.902736110000035,
              0
            ],
            [
              75.93353710000008,
              11.910885610000037,
              0
            ],
            [
              75.92387360000004,
              11.92198336000007,
              0
            ],
            [
              75.92445060000006,
              11.927849110000068,
              0
            ],
            [
              75.92960860000005,
              11.940125610000052,
              0
            ],
            [
              75.93556360000008,
              11.938381110000023,
              0
            ],
            [
              75.94165310000005,
              11.940102110000055,
              0
            ],
            [
              75.95289435000007,
              11.941210610000041,
              0
            ],
            [
              75.95943835000008,
              11.938822860000073,
              0
            ],
            [
              75.96342535000008,
              11.935929610000073,
              0
            ],
            [
              75.97250210000004,
              11.934307860000047,
              0
            ],
            [
              75.97724735000008,
              11.934894860000043,
              0
            ],
            [
              75.98089010000007,
              11.932320860000061,
              0
            ],
            [
              75.98451510000007,
              11.932023360000073,
              0
            ],
            [
              75.98803310000005,
              11.932803610000065,
              0
            ],
            [
              75.99915610000005,
              11.930686860000037,
              0
            ],
            [
              76.00290485000005,
              11.931024110000067,
              0
            ],
            [
              76.00869735000003,
              11.939332360000037,
              0
            ],
            [
              76.01866235000006,
              11.940679860000046,
              0
            ],
            [
              76.02322060000006,
              11.942442610000057,
              0
            ],
            [
              76.02781910000004,
              11.942083110000056,
              0
            ],
            [
              76.03440410000007,
              11.940225610000027,
              0
            ],
            [
              76.04334535000004,
              11.94646036000006,
              0
            ],
            [
              76.04679110000006,
              11.950762110000028,
              0
            ],
            [
              76.05262960000005,
              11.951941110000064,
              0
            ],
            [
              76.07167835000007,
              11.96577386000007,
              0
            ],
            [
              76.07774960000006,
              11.968797610000024,
              0
            ],
            [
              76.08596610000006,
              11.96819886000003,
              0
            ],
            [
              76.09628435000008,
              11.969139860000041,
              0
            ],
            [
              76.11295360000008,
              11.97821736000003,
              0
            ]
          ]
        ]
      }
    },
    {
      "type": "Feature",
      "properties": {
        "OID_": 0,
        "TALUK": "Vythiri",
        "STATE": "Kerala",
        "DISTRICT": "Wayanad",
        "Shape_Leng": 1.23159386672,
        "Shape_Area": 0.05279589893,
        "orig_ogc_f": 2182
      },
      "geometry": {
        "type": "Polygon",
        "coordinates": [
          [
            [
              75.91518210000004,
              11.689175860000034,
              0
            ],
            [
              75.91821435000008,
              11.690387610000073,
              0
            ],
            [
              75.92459885000005,
              11.688691610000035,
              0
            ],
            [
              75.92780485000003,
              11.688656610000066,
              0
            ],
            [
              75.93254760000008,
              11.69090661000007,
              0
            ],
            [
              75.94213160000004,
              11.69393886000006,
              0
            ],
            [
              75.94678385000003,
              11.694524110000032,
              0
            ],
            [
              75.95048760000003,
              11.69437436000004,
              0
            ],
            [
              75.95237235000008,
              11.69187536000004,
              0
            ],
            [
              75.95654410000003,
              11.692620360000035,
              0
            ],
            [
              75.95986835000008,
              11.694502360000058,
              0
            ],
            [
              75.96320060000005,
              11.697683360000042,
              0
            ],
            [
              75.96804685000006,
              11.703887860000066,
              0
            ],
            [
              75.97215360000007,
              11.706332860000032,
              0
            ],
            [
              75.97588785000005,
              11.701351110000076,
              0
            ],
            [
              75.97887135000008,
              11.707031610000058,
              0
            ],
            [
              75.98891385000007,
              11.71042336000005,
              0
            ],
            [
              75.99283360000004,
              11.713027110000041,
              0
            ],
            [
              75.99595235000004,
              11.711829360000024,
              0
            ],
            [
              75.99885385000005,
              11.712695110000027,
              0
            ],
            [
              76.00194810000005,
              11.712506610000048,
              0
            ],
            [
              76.00387110000008,
              11.714222360000065,
              0
            ],
            [
              76.00346860000008,
              11.716118860000051,
              0
            ],
            [
              76.00430060000008,
              11.720602360000044,
              0
            ],
            [
              76.00768260000007,
              11.72115911000003,
              0
            ],
            [
              76.01071285000006,
              11.722648610000022,
              0
            ],
            [
              76.01467535000006,
              11.723149110000065,
              0
            ],
            [
              76.01794810000007,
              11.725840360000063,
              0
            ],
            [
              76.02161685000004,
              11.724224110000023,
              0
            ],
            [
              76.02714860000003,
              11.726504610000063,
              0
            ],
            [
              76.03092510000005,
              11.723675610000043,
              0
            ],
            [
              76.02876510000004,
              11.72047236000003,
              0
            ],
            [
              76.02426785000006,
              11.717152110000029,
              0
            ],
            [
              76.02157210000007,
              11.712046360000045,
              0
            ],
            [
              76.02220410000007,
              11.707398610000041,
              0
            ],
            [
              76.01574410000006,
              11.709827610000048,
              0
            ],
            [
              76.01391935000004,
              11.705409110000062,
              0
            ],
            [
              76.01548160000004,
              11.700640860000021,
              0
            ],
            [
              76.01950185000004,
              11.701260110000021,
              0
            ],
            [
              76.02037035000006,
              11.698102860000063,
              0
            ],
            [
              76.02298135000007,
              11.694646860000034,
              0
            ],
            [
              76.02590885000006,
              11.700671860000057,
              0
            ],
            [
              76.03067960000004,
              11.696808860000033,
              0
            ],
            [
              76.03509460000004,
              11.694665610000072,
              0
            ],
            [
              76.03993235000007,
              11.693730860000073,
              0
            ],
            [
              76.04113610000007,
              11.68850186000003,
              0
            ],
            [
              76.04538110000004,
              11.68619786000005,
              0
            ],
            [
              76.04549135000008,
              11.682573110000021,
              0
            ],
            [
              76.05527285000005,
              11.682890860000043,
              0
            ],
            [
              76.05947585000007,
              11.685691860000077,
              0
            ],
            [
              76.06217885000007,
              11.694187860000056,
              0
            ],
            [
              76.06504160000003,
              11.69618311000005,
              0
            ],
            [
              76.06541035000004,
              11.703586610000059,
              0
            ],
            [
              76.07579135000003,
              11.70728586000007,
              0
            ],
            [
              76.07696560000005,
              11.710501860000022,
              0
            ],
            [
              76.08128785000008,
              11.71300836000006,
              0
            ],
            [
              76.08153585000008,
              11.716864110000074,
              0
            ],
            [
              76.08556135000003,
              11.720406360000027,
              0
            ],
            [
              76.08411610000007,
              11.72443486000003,
              0
            ],
            [
              76.08493835000007,
              11.726843110000061,
              0
            ],
            [
              76.08402485000005,
              11.731722610000077,
              0
            ],
            [
              76.08549610000006,
              11.734814110000059,
              0
            ],
            [
              76.08485485000006,
              11.736943110000027,
              0
            ],
            [
              76.08959435000008,
              11.744160610000051,
              0
            ],
            [
              76.09285360000007,
              11.743582360000062,
              0
            ],
            [
              76.09588510000003,
              11.741903860000036,
              0
            ],
            [
              76.11424035000005,
              11.743969110000023,
              0
            ],
            [
              76.11825535000008,
              11.740912110000068,
              0
            ],
            [
              76.10060810000004,
              11.725296110000045,
              0
            ],
            [
              76.10226210000008,
              11.71569911000006,
              0
            ],
            [
              76.10434785000007,
              11.710351110000033,
              0
            ],
            [
              76.11772435000006,
              11.703937110000027,
              0
            ],
            [
              76.12975685000004,
              11.695456610000065,
              0
            ],
            [
              76.12903335000004,
              11.686616610000044,
              0
            ],
            [
              76.13499385000006,
              11.675971860000061,
              0
            ],
            [
              76.13978335000007,
              11.664134360000048,
              0
            ],
            [
              76.14980235000007,
              11.645208610000054,
              0
            ],
            [
              76.15765160000007,
              11.640640860000076,
              0
            ],
            [
              76.16655135000008,
              11.638830860000041,
              0
            ],
            [
              76.17353910000008,
              11.63851986000003,
              0
            ],
            [
              76.17996910000005,
              11.627651110000045,
              0
            ],
            [
              76.18271135000003,
              11.611154610000028,
              0
            ],
            [
              76.18113785000008,
              11.595377860000042,
              0
            ],
            [
              76.18949760000004,
              11.587644860000069,
              0
            ],
            [
              76.19934960000006,
              11.574287860000027,
              0
            ],
            [
              76.20252460000006,
              11.566590610000048,
              0
            ],
            [
              76.20634785000004,
              11.560253610000075,
              0
            ],
            [
              76.22726060000008,
              11.562993360000064,
              0
            ],
            [
              76.23000035000007,
              11.564196860000038,
              0
            ],
            [
              76.23327610000007,
              11.567630110000039,
              0
            ],
            [
              76.24085735000006,
              11.554452360000028,
              0
            ],
            [
              76.24476785000007,
              11.541341110000076,
              0
            ],
            [
              76.24894010000008,
              11.536786110000037,
              0
            ],
            [
              76.24944135000004,
              11.532188860000076,
              0
            ],
            [
              76.24612235000006,
              11.528935860000047,
              0
            ],
            [
              76.23965110000006,
              11.526663110000072,
              0
            ],
            [
              76.23149535000005,
              11.525948110000058,
              0
            ],
            [
              76.22664085000008,
              11.520276860000024,
              0
            ],
            [
              76.22259935000005,
              11.513457610000046,
              0
            ],
            [
              76.20087210000008,
              11.507854610000038,
              0
            ],
            [
              76.18900760000008,
              11.496631110000067,
              0
            ],
            [
              76.18180385000005,
              11.483452360000058,
              0
            ],
            [
              76.18533585000006,
              11.477522360000023,
              0
            ],
            [
              76.18327360000006,
              11.472362110000063,
              0
            ],
            [
              76.17464910000007,
              11.468375860000037,
              0
            ],
            [
              76.16818685000004,
              11.466670610000051,
              0
            ],
            [
              76.16426060000003,
              11.459973360000049,
              0
            ],
            [
              76.14158210000005,
              11.450515860000053,
              0
            ],
            [
              76.13381235000008,
              11.456859110000039,
              0
            ],
            [
              76.12801535000006,
              11.465086860000042,
              0
            ],
            [
              76.12029860000007,
              11.472918110000023,
              0
            ],
            [
              76.11168985000006,
              11.475937110000075,
              0
            ],
            [
              76.10385410000004,
              11.481355860000065,
              0
            ],
            [
              76.09436710000006,
              11.483002860000056,
              0
            ],
            [
              76.08943810000005,
              11.489730610000038,
              0
            ],
            [
              76.09417185000007,
              11.494256110000038,
              0
            ],
            [
              76.09034635000006,
              11.499092360000077,
              0
            ],
            [
              76.08937460000004,
              11.506672610000066,
              0
            ],
            [
              76.07650260000008,
              11.521414110000023,
              0
            ],
            [
              76.07388485000007,
              11.521306110000069,
              0
            ],
            [
              76.06249035000008,
              11.508883360000027,
              0
            ],
            [
              76.05742360000005,
              11.509989610000048,
              0
            ],
            [
              76.05234360000003,
              11.503916610000033,
              0
            ],
            [
              76.04740535000008,
              11.506290110000066,
              0
            ],
            [
              76.04390585000004,
              11.505548610000062,
              0
            ],
            [
              76.04093235000005,
              11.502458360000048,
              0
            ],
            [
              76.03268385000007,
              11.509543360000066,
              0
            ],
            [
              76.02274335000004,
              11.513998860000072,
              0
            ],
            [
              76.01634510000008,
              11.515859610000064,
              0
            ],
            [
              76.00721985000007,
              11.523004860000071,
              0
            ],
            [
              75.99886410000005,
              11.527676610000071,
              0
            ],
            [
              75.98958185000004,
              11.534185610000065,
              0
            ],
            [
              75.98612310000004,
              11.538027610000029,
              0
            ],
            [
              75.97906835000003,
              11.541986860000065,
              0
            ],
            [
              75.97372660000008,
              11.54762586000004,
              0
            ],
            [
              75.96967585000004,
              11.549708860000067,
              0
            ],
            [
              75.96730635000006,
              11.55181661000006,
              0
            ],
            [
              75.95765510000007,
              11.562411110000028,
              0
            ],
            [
              75.95813160000006,
              11.567637360000049,
              0
            ],
            [
              75.95669760000004,
              11.573008110000046,
              0
            ],
            [
              75.95628285000004,
              11.580657110000061,
              0
            ],
            [
              75.95072210000006,
              11.582746860000043,
              0
            ],
            [
              75.94531310000008,
              11.583463360000053,
              0
            ],
            [
              75.93964910000005,
              11.586651860000075,
              0
            ],
            [
              75.93705660000006,
              11.589156610000032,
              0
            ],
            [
              75.92578160000005,
              11.591574110000067,
              0
            ],
            [
              75.91671860000008,
              11.597279360000073,
              0
            ],
            [
              75.90713785000008,
              11.603853110000045,
              0
            ],
            [
              75.90496410000003,
              11.60646636000007,
              0
            ],
            [
              75.90386885000004,
              11.615313860000072,
              0
            ],
            [
              75.89683735000006,
              11.620589860000052,
              0
            ],
            [
              75.89734485000008,
              11.62716861000007,
              0
            ],
            [
              75.89909485000004,
              11.630861860000039,
              0
            ],
            [
              75.89918760000006,
              11.643984860000046,
              0
            ],
            [
              75.90123735000003,
              11.648534360000042,
              0
            ],
            [
              75.90290110000007,
              11.660663860000057,
              0
            ],
            [
              75.90306460000005,
              11.667373610000027,
              0
            ],
            [
              75.90113685000006,
              11.678126860000077,
              0
            ],
            [
              75.90532360000003,
              11.68082411000006,
              0
            ],
            [
              75.90811635000006,
              11.683938860000069,
              0
            ],
            [
              75.91369410000004,
              11.686955110000042,
              0
            ],
            [
              75.91518210000004,
              11.689175860000034,
              0
            ]
          ]
        ]
      }
    },
    {
      "type": "Feature",
      "properties": {
        "OID_": 0,
        "TALUK": "Sulthanbathery",
        "STATE": "Kerala",
        "DISTRICT": "Wayanad",
        "Shape_Leng": 1.30024970474,
        "Shape_Area": 0.06162885603,
        "orig_ogc_f": 2203
      },
      "geometry": {
        "type": "Polygon",
        "coordinates": [
          [
            [
              76.12186435000007,
              11.850681610000038,
              0
            ],
            [
              76.12578260000004,
              11.851933860000031,
              0
            ],
            [
              76.13102260000005,
              11.85242986000003,
              0
            ],
            [
              76.14441435000003,
              11.864784360000044,
              0
            ],
            [
              76.15485335000005,
              11.868708860000027,
              0
            ],
            [
              76.16808485000007,
              11.867751110000029,
              0
            ],
            [
              76.17922085000004,
              11.870180860000062,
              0
            ],
            [
              76.18959685000004,
              11.871524860000022,
              0
            ],
            [
              76.20169135000003,
              11.863327860000027,
              0
            ],
            [
              76.20652585000005,
              11.861926610000069,
              0
            ],
            [
              76.20907360000007,
              11.85686411000006,
              0
            ],
            [
              76.21078210000007,
              11.846473610000032,
              0
            ],
            [
              76.21292385000004,
              11.839571110000065,
              0
            ],
            [
              76.21123860000006,
              11.82740386000006,
              0
            ],
            [
              76.21774660000005,
              11.822099360000038,
              0
            ],
            [
              76.22010885000003,
              11.812049860000059,
              0
            ],
            [
              76.22434085000003,
              11.807894110000063,
              0
            ],
            [
              76.23796585000008,
              11.804346610000039,
              0
            ],
            [
              76.25032060000007,
              11.803209610000067,
              0
            ],
            [
              76.25907310000008,
              11.807715360000032,
              0
            ],
            [
              76.27142610000004,
              11.808353860000068,
              0
            ],
            [
              76.27802060000005,
              11.811489360000053,
              0
            ],
            [
              76.28110335000008,
              11.808723110000074,
              0
            ],
            [
              76.28971985000004,
              11.792840610000042,
              0
            ],
            [
              76.30082885000007,
              11.786080360000028,
              0
            ],
            [
              76.30612860000008,
              11.784169610000049,
              0
            ],
            [
              76.30929960000003,
              11.77760961000007,
              0
            ],
            [
              76.31677310000003,
              11.751915360000055,
              0
            ],
            [
              76.32387710000006,
              11.74844261000004,
              0
            ],
            [
              76.33068285000007,
              11.746808860000044,
              0
            ],
            [
              76.34137235000003,
              11.738730360000034,
              0
            ],
            [
              76.34731160000007,
              11.739218360000052,
              0
            ],
            [
              76.35267710000005,
              11.738629360000061,
              0
            ],
            [
              76.35758060000006,
              11.742567360000066,
              0
            ],
            [
              76.36249660000004,
              11.748057360000075,
              0
            ],
            [
              76.37885435000004,
              11.744379610000067,
              0
            ],
            [
              76.39031110000008,
              11.753229610000062,
              0
            ],
            [
              76.39729460000007,
              11.751076110000042,
              0
            ],
            [
              76.41101610000004,
              11.758082860000059,
              0
            ],
            [
              76.41429035000004,
              11.761570110000036,
              0
            ],
            [
              76.41746960000006,
              11.754726860000062,
              0
            ],
            [
              76.41324485000007,
              11.748886360000029,
              0
            ],
            [
              76.41222960000005,
              11.741599860000065,
              0
            ],
            [
              76.41863760000007,
              11.742545110000037,
              0
            ],
            [
              76.42396260000004,
              11.734200110000074,
              0
            ],
            [
              76.42569885000006,
              11.729772110000056,
              0
            ],
            [
              76.42561810000007,
              11.725355110000066,
              0
            ],
            [
              76.42466960000007,
              11.721854360000066,
              0
            ],
            [
              76.41778510000006,
              11.71820961000003,
              0
            ],
            [
              76.41537235000004,
              11.712415360000023,
              0
            ],
            [
              76.41297760000003,
              11.71185261000005,
              0
            ],
            [
              76.40979085000004,
              11.715030610000042,
              0
            ],
            [
              76.40306135000003,
              11.709317110000029,
              0
            ],
            [
              76.40963635000008,
              11.70773261000005,
              0
            ],
            [
              76.40893160000007,
              11.691373610000028,
              0
            ],
            [
              76.41417535000005,
              11.677802360000044,
              0
            ],
            [
              76.41700885000006,
              11.672850610000069,
              0
            ],
            [
              76.42440510000006,
              11.671723860000043,
              0
            ],
            [
              76.43032685000003,
              11.667624610000075,
              0
            ],
            [
              76.43458860000004,
              11.655837360000021,
              0
            ],
            [
              76.43673635000005,
              11.653413360000059,
              0
            ],
            [
              76.44154985000006,
              11.649949110000023,
              0
            ],
            [
              76.44252135000005,
              11.646044360000076,
              0
            ],
            [
              76.44116960000008,
              11.641858610000043,
              0
            ],
            [
              76.43765635000005,
              11.637968360000059,
              0
            ],
            [
              76.43282210000007,
              11.63735636000007,
              0
            ],
            [
              76.43174410000006,
              11.631612860000075,
              0
            ],
            [
              76.42820385000005,
              11.633413360000077,
              0
            ],
            [
              76.40304060000005,
              11.633575610000037,
              0
            ],
            [
              76.38684285000005,
              11.63065836000004,
              0
            ],
            [
              76.38354685000007,
              11.622971860000064,
              0
            ],
            [
              76.38362710000007,
              11.61287161000007,
              0
            ],
            [
              76.37784285000004,
              11.608927360000052,
              0
            ],
            [
              76.37752160000008,
              11.601697860000058,
              0
            ],
            [
              76.37215885000006,
              11.599936610000043,
              0
            ],
            [
              76.35686360000005,
              11.590928860000076,
              0
            ],
            [
              76.34707160000005,
              11.588729360000059,
              0
            ],
            [
              76.34228860000007,
              11.586508860000038,
              0
            ],
            [
              76.34020960000004,
              11.588808610000058,
              0
            ],
            [
              76.34010985000003,
              11.593286360000036,
              0
            ],
            [
              76.33522835000008,
              11.596702110000024,
              0
            ],
            [
              76.31771410000005,
              11.585625110000024,
              0
            ],
            [
              76.31582560000004,
              11.57770886000003,
              0
            ],
            [
              76.31180410000007,
              11.578524610000045,
              0
            ],
            [
              76.30451060000007,
              11.572415610000064,
              0
            ],
            [
              76.30037085000004,
              11.573115360000031,
              0
            ],
            [
              76.29975760000008,
              11.579837860000055,
              0
            ],
            [
              76.29717335000004,
              11.588630360000025,
              0
            ],
            [
              76.29240110000006,
              11.591010610000069,
              0
            ],
            [
              76.28442910000007,
              11.591556360000027,
              0
            ],
            [
              76.28247160000006,
              11.59798961000007,
              0
            ],
            [
              76.27741810000003,
              11.600934610000024,
              0
            ],
            [
              76.27315735000008,
              11.597339110000064,
              0
            ],
            [
              76.26610285000004,
              11.594952860000035,
              0
            ],
            [
              76.23207260000004,
              11.572394110000062,
              0
            ],
            [
              76.23327610000007,
              11.567630110000039,
              0
            ],
            [
              76.23000035000007,
              11.564196860000038,
              0
            ],
            [
              76.22726060000008,
              11.562993360000064,
              0
            ],
            [
              76.20634785000004,
              11.560253610000075,
              0
            ],
            [
              76.20252460000006,
              11.566590610000048,
              0
            ],
            [
              76.19934960000006,
              11.574287860000027,
              0
            ],
            [
              76.18949760000004,
              11.587644860000069,
              0
            ],
            [
              76.18113785000008,
              11.595377860000042,
              0
            ],
            [
              76.18271135000003,
              11.611154610000028,
              0
            ],
            [
              76.17996910000005,
              11.627651110000045,
              0
            ],
            [
              76.17353910000008,
              11.63851986000003,
              0
            ],
            [
              76.16655135000008,
              11.638830860000041,
              0
            ],
            [
              76.15765160000007,
              11.640640860000076,
              0
            ],
            [
              76.14980235000007,
              11.645208610000054,
              0
            ],
            [
              76.13978335000007,
              11.664134360000048,
              0
            ],
            [
              76.13499385000006,
              11.675971860000061,
              0
            ],
            [
              76.12903335000004,
              11.686616610000044,
              0
            ],
            [
              76.12975685000004,
              11.695456610000065,
              0
            ],
            [
              76.11772435000006,
              11.703937110000027,
              0
            ],
            [
              76.10434785000007,
              11.710351110000033,
              0
            ],
            [
              76.10226210000008,
              11.71569911000006,
              0
            ],
            [
              76.10060810000004,
              11.725296110000045,
              0
            ],
            [
              76.11825535000008,
              11.740912110000068,
              0
            ],
            [
              76.12146810000007,
              11.745836360000055,
              0
            ],
            [
              76.12282510000006,
              11.749686610000026,
              0
            ],
            [
              76.12260835000006,
              11.753764860000047,
              0
            ],
            [
              76.11957735000004,
              11.755671610000036,
              0
            ],
            [
              76.11580110000006,
              11.756651610000063,
              0
            ],
            [
              76.11353985000005,
              11.760737360000064,
              0
            ],
            [
              76.11550160000007,
              11.773650360000033,
              0
            ],
            [
              76.11820260000007,
              11.780363610000052,
              0
            ],
            [
              76.11430710000008,
              11.782386860000031,
              0
            ],
            [
              76.10132535000008,
              11.786210360000041,
              0
            ],
            [
              76.09660335000007,
              11.785943860000032,
              0
            ],
            [
              76.08555435000005,
              11.791661610000062,
              0
            ],
            [
              76.07984335000003,
              11.791793860000041,
              0
            ],
            [
              76.07759060000006,
              11.79714086000007,
              0
            ],
            [
              76.07656410000004,
              11.80380936000006,
              0
            ],
            [
              76.08794835000003,
              11.81312586000007,
              0
            ],
            [
              76.09099435000007,
              11.818631860000039,
              0
            ],
            [
              76.08846935000008,
              11.831605360000026,
              0
            ],
            [
              76.09122360000003,
              11.835450360000038,
              0
            ],
            [
              76.11363285000004,
              11.843417360000046,
              0
            ],
            [
              76.12186435000007,
              11.850681610000038,
              0
            ]
          ]
        ]
      }
    }
  ]
}